ORBCOMM FM115           
1 41186U 15081H   25364.56889209  .00001267  00000+0  27915-3 0  9994
2 41186  46.9964 185.2669 0001387 247.1847 112.8894 14.62956603536525
ORBCOMM FM108           
1 41187U 15081J   25365.07078743  .00001639  00000+0  38499-3 0  9997
2 41187  47.0044 256.8932 0002066 144.6667 215.4356 14.58603511535536
ORBCOMM FM117           
1 41188U 15081K   25364.96781102  .00001592  00000+0  37472-3 0  9993
2 41188  47.0008 256.0694 0002461 151.2546 208.8476 14.58627573535569
ORBCOMM FM116           
1 41189U 15081L   25364.94821163  .00001972  00000+0  45564-3 0  9997
2 41189  47.0037 345.9341 0002234 330.8517  29.2244 14.58623315534376
